*******************************************************************************
JPL/HORIZONS               342 Endymion (A892 UA)          2023-Sep-04 11:05:47
Rec #:     342 (+COV) Soln.date: 2023-Aug-23_10:11:18   # obs: 7190 (1892-2023)
 
IAU76/J2000 helio. ecliptic osc. elements (au, days, deg., period=Julian yrs):
 
  EPOCH=  2456882.5 ! 2014-Aug-13.00 (TDB)         Residual RMS= .23412
   EC= .1280452816090059   QR= 2.240165553534987   TP= 2456196.583195549
   OM= 232.7113095358774   W=  224.5656921584833   IN= 7.348220141854602
   A= 2.569130605392827    MA= 164.1709240186157   ADIST= 2.898095657250668
   PER= 4.11801            N= .239345243           ANGMOM= .027345431
   DAN= 2.78068            DDN= 2.31575            L= 97.0407941
   B= -5.1492461           MOID= 1.26444995        TP= 2012-Sep-26.0831955490
 
Asteroid physical parameters (km, seconds, rotational period in hours):
   GM= n.a.                RAD= 32.133             ROTPER= 6.319
   H= 10.31                G= .150                 B-V= .712
                           ALBEDO= .035            STYP= Ch

ASTEROID comments: 
1: soln ref.= JPL#68, OCC=0
2: source=ORB
*******************************************************************************


*******************************************************************************
Ephemeris / API_USER Mon Sep  4 11:05:47 2023 Pasadena, USA      / Horizons
*******************************************************************************
Target body name: 342 Endymion (A892 UA)          {source: JPL#68}
Center body name: Solar System Barycenter (0)     {source: DE441}
Center-site name: BODY CENTER
*******************************************************************************
Start time      : A.D. 2023-Aug-12 00:00:00.0000 TDB
Stop  time      : A.D. 2023-Aug-13 00:00:00.0000 TDB
Step-size       : 2880 minutes
*******************************************************************************
Center geodetic : 0.0, 0.0, 0.0                   {E-lon(deg),Lat(deg),Alt(km)}
Center cylindric: 0.0, 0.0, 0.0                   {E-lon(deg),Dxy(km),Dz(km)}
Center radii    : (undefined)
Small perturbers: Yes                             {source: SB441-N16}
Output units    : KM-S
Calendar mode   : Mixed Julian/Gregorian
Output type     : GEOMETRIC cartesian states
Output format   : 2 (position and velocity)
Reference frame : Ecliptic of J2000.0
*******************************************************************************
Initial IAU76/J2000 heliocentric ecliptic osculating elements (au, days, deg.):
  EPOCH=  2456882.5 ! 2014-Aug-13.00 (TDB)         Residual RMS= .23412        
   EC= .1280452816090059   QR= 2.240165553534987   TP= 2456196.583195549       
   OM= 232.7113095358774   W=  224.5656921584833   IN= 7.348220141854602       
  Equivalent ICRF heliocentric cartesian coordinates (au, au/d):
   X=-2.662100679075110E-01  Y=-2.710758467502629E+00  Z=-9.607020991860356E-01
  VX= 9.350792753533082E-03 VY=-1.419889356313916E-03 VZ= 5.232728614814612E-04
Asteroid physical parameters (km, seconds, rotational period in hours):        
   GM= n.a.                RAD= 32.133             ROTPER= 6.319               
   H= 10.31                G= .150                 B-V= .712                   
                           ALBEDO= .035            STYP= Ch                    
*******************************************************************************
JDTDB
   X     Y     Z
   VX    VY    VZ
*******************************************************************************
$$SOE
2460168.500000000 = A.D. 2023-Aug-12 00:00:00.0000 TDB 
 X = 3.058647476982484E+08 Y =-2.806694054998230E+08 Z = 5.349826422553163E+07
 VX= 1.021565970655802E+01 VY= 1.352166544060165E+01 VZ=-1.224697263759378E-02
$$EOE
*******************************************************************************
 
TIME

  Barycentric Dynamical Time ("TDB" or T_eph) output was requested. This
continuous coordinate time is equivalent to the relativistic proper time
of a clock at rest in a reference frame co-moving with the solar system
barycenter but outside the system's gravity well. It is the independent
variable in the solar system relativistic equations of motion.

  TDB runs at a uniform rate of one SI second per second and is independent
of irregularities in Earth's rotation.
 
CALENDAR SYSTEM

  Mixed calendar mode was active such that calendar dates after AD 1582-Oct-15
(if any) are in the modern Gregorian system. Dates prior to 1582-Oct-5 (if any)
are in the Julian calendar system, which is automatically extended for dates
prior to its adoption on 45-Jan-1 BC.  The Julian calendar is useful for
matching historical dates. The Gregorian calendar more accurately corresponds
to the Earth's orbital motion and seasons. A "Gregorian-only" calendar mode is
available if such physical events are the primary interest.

REFERENCE FRAME AND COORDINATES

  Ecliptic at the standard reference epoch

    Reference epoch: J2000.0
    X-Y plane: adopted Earth orbital plane at the reference epoch
               Note: IAU76 obliquity of 84381.448 arcseconds wrt ICRF X-Y plane
    X-axis   : ICRF
    Z-axis   : perpendicular to the X-Y plane in the directional (+ or -) sense
               of Earth's north pole at the reference epoch.

  Symbol meaning:

    JDTDB    Julian Day Number, Barycentric Dynamical Time
      X      X-component of position vector (km)
      Y      Y-component of position vector (km)
      Z      Z-component of position vector (km)
      VX     X-component of velocity vector (km/sec)                           
      VY     Y-component of velocity vector (km/sec)                           
      VZ     Z-component of velocity vector (km/sec)                           

ABERRATIONS AND CORRECTIONS

 Geometric state vectors have NO corrections or aberrations applied.

Computations by ...

    Solar System Dynamics Group, Horizons On-Line Ephemeris System
    4800 Oak Grove Drive, Jet Propulsion Laboratory
    Pasadena, CA  91109   USA

    General site: https://ssd.jpl.nasa.gov/
    Mailing list: https://ssd.jpl.nasa.gov/email_list.html
    System news : https://ssd.jpl.nasa.gov/horizons/news.html
    User Guide  : https://ssd.jpl.nasa.gov/horizons/manual.html
    Connect     : browser        https://ssd.jpl.nasa.gov/horizons/app.html#/x
                  API            https://ssd-api.jpl.nasa.gov/doc/horizons.html
                  command-line   telnet ssd.jpl.nasa.gov 6775
                  e-mail/batch   https://ssd.jpl.nasa.gov/ftp/ssd/hrzn_batch.txt
                  scripts        https://ssd.jpl.nasa.gov/ftp/ssd/SCRIPTS
    Author      : Jon.D.Giorgini@jpl.nasa.gov
*******************************************************************************
